{
  "type": "FeatureCollection",
  "features": [
    {
      "type": "Feature",
      "properties": {
        "norad_id": 33887,
        "name": "IRIDIUM 33 DEB",
        "group": "iridium-33-debris",
        "lat": -48.60339056975991,
        "lon": -178.45293257284254,
        "alt_km": 772.146420077036,
        "timestamp": "2025-12-26T18:39:32.665323+00:00",
        "meta_object_name": "IRIDIUM 33 DEB",
        "meta_object_id": "1997-051BG",
        "meta_epoch": "2025-12-26T01:09:55.785312",
        "meta_mean_motion": 14.37232581,
        "meta_eccentricity": 0.00058983,
        "meta_inclination": 86.3044,
        "meta_ra_of_asc_node": 357.6564,
        "meta_arg_of_pericenter": 176.4648,
        "meta_mean_anomaly": 243.1701,
        "meta_ephemeris_type": 0,
        "meta_classification_type": "U",
        "meta_norad_cat_id": 33887,
        "meta_element_set_no": 999,
        "meta_rev_at_epoch": 88356,
        "meta_bstar": 0.00014545145,
        "meta_mean_motion_dot": 4.53e-06,
        "meta_mean_motion_ddot": 0,
        "tle_line1": "1 33887U 97051BG  25360.04856233  .00000453  00000+0  14545-3 0  9991",
        "tle_line2": "2 33887  86.3044 357.6564 0005898 176.4648 243.1701 14.37232581883562"
      },
      "geometry": {
        "type": "Point",
        "coordinates": [
          -178.45293257284254,
          -48.60339056975991
        ]
      }
    },
    {
      "type": "Feature",
      "properties": {
        "norad_id": 33953,
        "name": "IRIDIUM 33 DEB",
        "group": "iridium-33-debris",
        "lat": -79.00418402936474,
        "lon": 28.68911169696374,
        "alt_km": 724.6827288499226,
        "timestamp": "2025-12-26T18:39:32.665334+00:00",
        "meta_object_name": "IRIDIUM 33 DEB",
        "meta_object_id": "1997-051BN",
        "meta_epoch": "2025-12-26T14:46:02.740800",
        "meta_mean_motion": 14.55451821,
        "meta_eccentricity": 0.00174505,
        "meta_inclination": 86.3834,
        "meta_ra_of_asc_node": 47.7557,
        "meta_arg_of_pericenter": 60.1468,
        "meta_mean_anomaly": 91.3298,
        "meta_ephemeris_type": 0,
        "meta_classification_type": "U",
        "meta_norad_cat_id": 33953,
        "meta_element_set_no": 999,
        "meta_rev_at_epoch": 88505,
        "meta_bstar": 0.0011158645,
        "meta_mean_motion_dot": 4.881e-05,
        "meta_mean_motion_ddot": 0,
        "tle_line1": "1 33953U 97051BN  25360.61530950  .00004881  00000+0  11159-2 0  9999",
        "tle_line2": "2 33953  86.3834  47.7557 0017450  60.1468  91.3298 14.55451821885058"
      },
      "geometry": {
        "type": "Point",
        "coordinates": [
          28.68911169696374,
          -79.00418402936474
        ]
      }
    },
    {
      "type": "Feature",
      "properties": {
        "norad_id": 33960,
        "name": "IRIDIUM 33 DEB",
        "group": "iridium-33-debris",
        "lat": 13.652027873531033,
        "lon": 101.98170816793969,
        "alt_km": 614.9558466620429,
        "timestamp": "2025-12-26T18:39:32.665345+00:00",
        "meta_object_name": "IRIDIUM 33 DEB",
        "meta_object_id": "1997-051BV",
        "meta_epoch": "2025-12-26T13:36:40.279968",
        "meta_mean_motion": 14.85895569,
        "meta_eccentricity": 0.00069794,
        "meta_inclination": 86.2535,
        "meta_ra_of_asc_node": 282.9929,
        "meta_arg_of_pericenter": 38.4617,
        "meta_mean_anomaly": 83.3231,
        "meta_ephemeris_type": 0,
        "meta_classification_type": "U",
        "meta_norad_cat_id": 33960,
        "meta_element_set_no": 999,
        "meta_rev_at_epoch": 89072,
        "meta_bstar": 0.0032635074,
        "meta_mean_motion_dot": 0.0002856,
        "meta_mean_motion_ddot": 0,
        "tle_line1": "1 33960U 97051BV  25360.56713287  .00028560  00000+0  32635-2 0  9999",
        "tle_line2": "2 33960  86.2535 282.9929 0006979  38.4617  83.3231 14.85895569890729"
      },
      "geometry": {
        "type": "Point",
        "coordinates": [
          101.98170816793969,
          13.652027873531033
        ]
      }
    },
    {
      "type": "Feature",
      "properties": {
        "norad_id": 33966,
        "name": "IRIDIUM 33 DEB",
        "group": "iridium-33-debris",
        "lat": 64.25628767118427,
        "lon": -147.51894347386823,
        "alt_km": 715.1374625054232,
        "timestamp": "2025-12-26T18:39:32.665356+00:00",
        "meta_object_name": "IRIDIUM 33 DEB",
        "meta_object_id": "1997-051CB",
        "meta_epoch": "2025-12-26T15:23:33.736416",
        "meta_mean_motion": 14.49646818,
        "meta_eccentricity": 0.00088807,
        "meta_inclination": 86.391,
        "meta_ra_of_asc_node": 40.0602,
        "meta_arg_of_pericenter": 145.5538,
        "meta_mean_anomaly": 340.1487,
        "meta_ephemeris_type": 0,
        "meta_classification_type": "U",
        "meta_norad_cat_id": 33966,
        "meta_element_set_no": 999,
        "meta_rev_at_epoch": 88643,
        "meta_bstar": 0.00051075448,
        "meta_mean_motion_dot": 1.983e-05,
        "meta_mean_motion_ddot": 0,
        "tle_line1": "1 33966U 97051CB  25360.64136269  .00001983  00000+0  51075-3 0  9993",
        "tle_line2": "2 33966  86.3910  40.0602 0008880 145.5538 340.1487 14.49646818886430"
      },
      "geometry": {
        "type": "Point",
        "coordinates": [
          -147.51894347386823,
          64.25628767118427
        ]
      }
    },
    {
      "type": "Feature",
      "properties": {
        "norad_id": 34071,
        "name": "IRIDIUM 33 DEB",
        "group": "iridium-33-debris",
        "lat": 4.206711100612021,
        "lon": -168.5435570369025,
        "alt_km": 731.5986433581838,
        "timestamp": "2025-12-26T18:39:32.665366+00:00",
        "meta_object_name": "IRIDIUM 33 DEB",
        "meta_object_id": "1997-051CE",
        "meta_epoch": "2025-12-26T11:13:30.258048",
        "meta_mean_motion": 14.49524839,
        "meta_eccentricity": 0.00098087,
        "meta_inclination": 86.3453,
        "meta_ra_of_asc_node": 11.8604,
        "meta_arg_of_pericenter": 70.8621,
        "meta_mean_anomaly": 289.3644,
        "meta_ephemeris_type": 0,
        "meta_classification_type": "U",
        "meta_norad_cat_id": 34071,
        "meta_element_set_no": 999,
        "meta_rev_at_epoch": 88533,
        "meta_bstar": 0.00061986752,
        "meta_mean_motion_dot": 2.397e-05,
        "meta_mean_motion_ddot": 0,
        "tle_line1": "1 34071U 97051CE  25360.46771132  .00002397  00000+0  61987-3 0  9998",
        "tle_line2": "2 34071  86.3453  11.8604 0009808  70.8621 289.3644 14.49524839885337"
      },
      "geometry": {
        "type": "Point",
        "coordinates": [
          -168.5435570369025,
          4.206711100612021
        ]
      }
    },
    {
      "type": "Feature",
      "properties": {
        "norad_id": 34077,
        "name": "IRIDIUM 33 DEB",
        "group": "iridium-33-debris",
        "lat": 75.75395250854186,
        "lon": 59.74084143363614,
        "alt_km": 669.2023055456548,
        "timestamp": "2025-12-26T18:39:32.665377+00:00",
        "meta_object_name": "IRIDIUM 33 DEB",
        "meta_object_id": "1997-051CL",
        "meta_epoch": "2025-12-26T14:07:44.755680",
        "meta_mean_motion": 14.65016351,
        "meta_eccentricity": 0.00085783,
        "meta_inclination": 86.3849,
        "meta_ra_of_asc_node": 45.4053,
        "meta_arg_of_pericenter": 353.713,
        "meta_mean_anomaly": 167.6,
        "meta_ephemeris_type": 0,
        "meta_classification_type": "U",
        "meta_norad_cat_id": 34077,
        "meta_element_set_no": 999,
        "meta_rev_at_epoch": 88535,
        "meta_bstar": 0.0016163201,
        "meta_mean_motion_dot": 8.69e-05,
        "meta_mean_motion_ddot": 0,
        "tle_line1": "1 34077U 97051CL  25360.58871245  .00008690  00000+0  16163-2 0  9990",
        "tle_line2": "2 34077  86.3849  45.4053 0008578 353.7130 167.6000 14.65016351885353"
      },
      "geometry": {
        "type": "Point",
        "coordinates": [
          59.74084143363614,
          75.75395250854186
        ]
      }
    },
    {
      "type": "Feature",
      "properties": {
        "norad_id": 34079,
        "name": "IRIDIUM 33 DEB",
        "group": "iridium-33-debris",
        "lat": -63.80749593442486,
        "lon": -5.123560280840043,
        "alt_km": 621.7564501913939,
        "timestamp": "2025-12-26T18:39:32.665389+00:00",
        "meta_object_name": "IRIDIUM 33 DEB",
        "meta_object_id": "1997-051CN",
        "meta_epoch": "2025-12-26T11:32:13.953120",
        "meta_mean_motion": 14.83901424,
        "meta_eccentricity": 0.000384,
        "meta_inclination": 86.3777,
        "meta_ra_of_asc_node": 2.4107,
        "meta_arg_of_pericenter": 314.9753,
        "meta_mean_anomaly": 196.8764,
        "meta_ephemeris_type": 0,
        "meta_classification_type": "U",
        "meta_norad_cat_id": 34079,
        "meta_element_set_no": 999,
        "meta_rev_at_epoch": 89181,
        "meta_bstar": 0.0018990434,
        "meta_mean_motion_dot": 0.00015813,
        "meta_mean_motion_ddot": 0,
        "tle_line1": "1 34079U 97051CN  25360.48071705  .00015813  00000+0  18990-2 0  9999",
        "tle_line2": "2 34079  86.3777   2.4107 0003840 314.9753 196.8764 14.83901424891818"
      },
      "geometry": {
        "type": "Point",
        "coordinates": [
          -5.123560280840043,
          -63.80749593442486
        ]
      }
    }
  ]
}